ESTCUBE 1               
1 39161U 13021C   22032.95183985  .00000569  00000+0  96875-4 0  9992
2 39161  97.9223 113.6787 0010225 130.7067 229.5055 14.72658009469527
FENGYUN 3C              
1 39260U 13052A   22032.80381414  .00000033  00000+0  37804-4 0  9990
2 39260  98.4720  67.6741 0010208 310.2459  49.7808 14.15896788432729
CASSIOPE                
1 39265U 13055A   22032.87040791  .00013326  00000+0  36440-3 0  9998
2 39265  80.9639  50.7506 0636640 359.2049   0.8057 14.35236133432866
ZACUBE-1 (TSHEPISOSAT)  
1 39417U 13066B   22032.86453751  .00000932  00000+0  12093-3 0  9999
2 39417  97.6200  10.6729 0059499 128.1921 232.4673 14.81804939443044
CINEMA-3 (KHUSAT-2)     
1 39426U 13066L   22032.82666136  .00000942  00000+0  15357-3 0  9995
2 39426  97.7854 338.7977 0102796 310.9201  48.3138 14.69861180439345
TRITON-1                
1 39427U 13066M   22032.82837621  .00001643  00000+0  26586-3 0  9990
2 39427  97.8020 334.6695 0112405 338.8344  20.8230 14.68506831438872
DELFI-N3XT              
1 39428U 13066N   22032.82140006  .00003033  00000+0  47875-3 0  9994
2 39428  97.8049 333.1791 0118963 352.0683   7.8639 14.68432803438622
GOMX-1                  
1 39430U 13066Q   22032.82557389  .00000512  00000+0  10003-3 0  9995
2 39430  97.8159 307.7529 0151343 112.1338 249.6015 14.59827489436501
BRITE-PL1 (LEM)         
1 39431U 13066R   22032.86480228  .00000300  00000+0  74548-4 0  9997
2 39431  97.7191 258.4746 0200604 288.8564  69.0973 14.47224446432758
ICUBE-1                 
1 39432U 13066S   22032.73631594  .00001960  00000+0  20050-3 0  9999
2 39432  97.4693  43.6230 0031533   0.7629 359.3633 14.91272456444474
HUMSAT-D                
1 39433U 13066T   22032.84510942  .00002377  00000+0  22963-3 0  9993
2 39433  97.4563  51.1191 0029286 336.5566  23.4318 14.93412992444970
VELOX-PII               
1 39438U 13066Y   22032.88962219  .00000652  00000+0  92679-4 0  9996
2 39438  97.6742   1.6494 0069983 176.8603 183.3062 14.78461049440975
FIRST-MOVE              
1 39439U 13066Z   22032.91505985  .00001858  00000+0  22567-3 0  9991
2 39439  97.6229  12.7129 0065241 124.5959 236.1433 14.83157863441951
CUBEBUG-2 (LO-74)       
1 39440U 13066AA  22032.87280073  .00000782  00000+0  11386-3 0  9998
2 39440  97.7087 356.3263 0078595 210.4307 149.2330 14.76524241440274
NEE-02 KRYSAOR          
1 39441U 13066AB  22032.83285939  .00000759  00000+0  11353-3 0  9999
2 39441  97.7194 353.5391 0080062 223.3024 136.1876 14.75388385440036
FUNCUBE-1 (AO-73)       
1 39444U 13066AE  22032.90708075  .00001174  00000+0  14728-3 0  9992
2 39444  97.6090  13.1062 0058645 117.3061 243.4141 14.82770374441435
HINCUBE                 
1 39445U 13066AF  22032.87416221  .00001128  00000+0  14236-3 0  9991
2 39445  97.6105  12.9081 0058657 119.4273 241.2813 14.82590659441373
UWE-3                   
1 39446U 13066AG  22032.85766811  .00000786  00000+0  10887-3 0  9990
2 39446  97.6678   2.9807 0069475 170.1892 190.0695 14.79062053440416
AIST-1 (RS-41)          
1 39492U 13078C   22032.71270925  .00000593  00000+0  61549-4 0  9993
2 39492  82.4199   6.4731 0019104 191.4522 168.6270 14.88183564439590
SPROUT                  
1 39770U 14029E   22032.86616530  .00002896  00000+0  31148-3 0  9990
2 39770  97.9293 149.2814 0008712 166.5682 193.5768 14.89278697417471
UNISAT-6                
1 40012U 14033C   22032.81712395  .00001149  00000+0  17572-3 0  9992
2 40012  97.6621 228.0347 0056668 237.5591 122.0131 14.74536048409992
BUGSAT-1 (TITA)         
1 40014U 14033E   22032.92587674  .00001481  00000+0  13610-3 0  9994
2 40014  98.1325  25.9274 0032455 124.3146 236.1154 14.96083521415874
DUCHIFAT-1              
1 40021U 14033M   22032.83232304  .00002436  00000+0  24653-3 0  9999
2 40021  97.9982 340.8172 0013744 123.9481 236.3046 14.91876012414478
NANOSATC-BR1            
1 40024U 14033Q   22032.80755668  .00002025  00000+0  21102-3 0  9992
2 40024  97.9732 334.8386 0013053 129.6065 230.6308 14.90888811413766
QB50P1                  
1 40025U 14033R   22032.81718947  .00001727  00000+0  18561-3 0  9996
2 40025  97.9509 329.3314 0013152 138.3880 221.8341 14.89814855413563
DTUSAT-2                
1 40030U 14033W   22032.75682723  .00001677  00000+0  18254-3 0  9990
2 40030  97.9303 325.1226 0012651 135.2909 224.9330 14.89333733413448
QB50P2                  
1 40032U 14033Y   22032.72607670  .00001560  00000+0  17038-3 0  9997
2 40032  97.9309 325.1025 0012620 136.1981 224.0239 14.89297544413414
POLYITAN-1              
1 40042U 14033AJ  22032.82677262  .00002165  00000+0  23170-3 0  9999
2 40042  97.9609 330.3679 0015465 131.2033 229.0520 14.89701521413452
TIGRISAT                
1 40043U 14033AK  22032.80961133  .00000909  00000+0  13971-3 0  9993
2 40043  97.6576 229.3788 0058392 235.1202 124.4511 14.74713075409633
AISAT                   
1 40054U 14034B   22032.88319405  .00001554  00000+0  21844-3 0  9998
2 40054  98.3436 199.0739 0013129  33.7943 326.4101 14.78874456409432
CANX-4                  
1 40055U 14034C   22032.89595621  .00000452  00000+0  74950-4 0  9999
2 40055  98.3343 185.6020 0015323  71.2853 289.0016 14.75191345408736
CANX-5                  
1 40056U 14034D   22032.90190981  .00000461  00000+0  76254-4 0  9991
2 40056  98.3343 185.5907 0015347  71.5018 288.7856 14.75184595399547
VELOX-I                 
1 40057U 14034E   22032.71519464  .00001189  00000+0  17033-3 0  9999
2 40057  98.3487 200.0185 0011652  48.9750 311.2486 14.78525035409414
METEOR-M 2              
1 40069U 14037A   22032.82035926 -.00000006  00000+0  16543-4 0  9997
2 40069  98.4430  56.7404 0005876   8.9080 351.2199 14.20696209392605
DX1                     
1 40071U 14037C   22032.80706648  .00000423  00000+0  61183-4 0  9996
2 40071  98.4276 254.6492 0009373  38.7600 321.4289 14.81640435409253
UKUBE-1                 
1 40074U 14037F   22032.85956004  .00001039  00000+0  12924-3 0  9999
2 40074  98.4022 266.3263 0005030  18.8677 341.2724 14.84867396409940
FIREBIRD 3              
1 40377U 15003B   22032.49107608  .00016971  00000+0  56565-3 0  9997
2 40377  99.1120 227.5244 0110889 123.8831 237.3010 15.25387301387665
FIREBIRD 4              
1 40378U 15003C   22032.85211448  .00010697  00000+0  35744-3 0  9991
2 40378  99.1126 228.1462 0110867 122.3763 238.8257 15.25464348387728
GRIFEX                  
1 40379U 15003D   22032.78485736  .00013424  00000+0  50881-3 0  9997
2 40379  99.1153 215.3206 0123039 160.6719 199.9238 15.20182081386994
CP10 (EXOCUBE)          
1 40380U 15003E   22032.75728433  .00012157  00000+0  49135-3 0  9992
2 40380  99.1193 208.7374 0129203 182.6366 177.4197 15.17513392386560
DEORBITSAIL             
1 40719U 15032E   22032.91454357  .00001392  00000+0  20048-3 0  9990
2 40719  97.8015 275.6779 0017535  84.0079 276.3129 14.77761716353867
NUDT-PHONESAT           
1 40900U 15049B   22032.95520720  .00013398  00000+0  46903-3 0  9999
2 40900  97.4113  50.8465 0012648  54.9723   7.1188 15.29549528353869
XW-2A                   
1 40903U 15049E   22032.94899568  .00012077  00000+0  23076-3 0  9999
2 40903  97.2060  91.6687 0009669 253.5088 231.1456 15.48201625358260
XW-2C                   
1 40906U 15049H   22032.95613407  .00002998  00000+0  15221-3 0  9993
2 40906  97.4925  37.6225 0016123 108.5707 306.0222 15.17568820352360
XW-2D                   
1 40907U 15049J   22032.96138953  .00003487  00000+0  17439-3 0  9990
2 40907  97.4908  37.5175 0015407 104.3931 312.4106 15.18002736352409
LILACSAT-2              
1 40908U 15049K   22032.92269971  .00002006  00000+0  11087-3 0  9991
2 40908  97.5133  34.9675 0017028 122.5128 324.8223 15.14926372351962
XW-2E                   
1 40909U 15049L   22032.97077591  .00005540  00000+0  25279-3 0  9996
2 40909  97.4671  41.8218 0014686  89.4610 301.2057 15.20930428352805
XW-2F                   
1 40910U 15049M   22032.92441071  .00005584  00000+0  25844-3 0  9997
2 40910  97.4742  40.8823 0015778  89.1950 335.0071 15.20421327352572
XW-2B                   
1 40911U 15049N   22032.91710153  .00003623  00000+0  18150-3 0  9991
2 40911  97.4900  38.1125 0015294 105.6961 341.7184 15.17910163352287
KAITUO 1B               
1 40912U 15049P   22032.92664701  .00006415  00000+0  27373-3 0  9999
2 40912  97.4423  45.2567 0015587  61.5359  25.9387 15.23148209353102
TIANWANG 1A (TW-1A)     
1 40928U 15051D   22032.92429368  .00019117  00000+0  33621-3 0  9993
2 40928  97.0580  57.6454 0009473 154.9121 289.9983 15.50469382357186
LAPAN-A2                
1 40931U 15052B   22030.77250243  .00000823  00000+0  25367-4 0  9996
2 40931   5.9970  71.1209 0013587  17.1532 128.4088 14.76725120342951
LQSAT                   
1 40958U 15057A   22032.77553432  .00000158  00000+0  31745-4 0  9996
2 40958  97.7721  84.9263 0019160  41.4903 318.7746 14.73246225340011
ATHENOXAT 1             
1 41168U 15077C   22032.29879170  .00007858  00000+0  34523-3 0  9999
2 41168  14.9865  16.7093 0009744 134.0948 264.5446 15.17467863339570
GALASSIA                
1 41170U 15077E   22032.25545051  .00009688  00000+0  43309-3 0  9991
2 41170  14.9902   7.4031 0011580 160.0498 200.0277 15.17477908339482
VELOX-II                
1 41171U 15077F   22032.72807226  .00007322  00000+0  35747-3 0  9999
2 41171  14.9924  70.7150 0008268  18.1138 341.9476 15.13679864339000
CHUBUSAT-2              
1 41338U 16012B   22032.81369421  .00001761  00000+0  12850-3 0  9995
2 41338  31.0019 167.1622 0013562 247.9079 112.0116 15.00834740327089
CHUBUSAT-3              
1 41339U 16012C   22032.74919446  .00001246  00000+0  88652-4 0  9998
2 41339  31.0094 164.5856 0013414 255.6416 104.2746 15.00954197327070
HORYU-4                 
1 41340U 16012D   22032.67798081  .00003157  00000+0  22599-3 0  9992
2 41340  31.0044 145.5801 0013618 290.7556  69.1621 15.02399559327288
